IRIDIUM 155             
1 43573U 18061E   24035.58613636  .00000157  00000+0  49170-4 0  9997
2 43573  86.3924  57.5964 0002018  86.2455 273.8971 14.34216967289574
IRIDIUM 154             
1 43574U 18061F   24036.12525979 -.00000203  00000+0 -79592-4 0  9996
2 43574  86.3925  57.4623 0002299  89.3831 270.7628 14.34216301289702
IRIDIUM 163             
1 43575U 18061G   24035.89692830 -.00000317  00000+0 -12011-3 0  9999
2 43575  86.3924  57.4997 0002170  88.4343 271.7102 14.34214393289642
IRIDIUM 156             
1 43576U 18061H   24036.15061497  .00000266  00000+0  88030-4 0  9995
2 43576  86.3927  57.4000 0002056  97.2543 262.8886 14.34222144289669
IRIDIUM 164             
1 43577U 18061J   24036.13159904  .00000218  00000+0  70700-4 0  9997
2 43577  86.3927  57.4349 0002290  96.8595 263.2861 14.34217283289710
IRIDIUM 159             
1 43578U 18061K   24035.89057677 -.00000062  00000+0 -29166-4 0  9993
2 43578  86.3923  57.4906 0002194  88.9450 271.1997 14.34215269289643
IRIDIUM 180             
1 43922U 19002A   24036.37845644  .00000445  00000+0  15183-3 0  9991
2 43922  86.4005 354.1757 0002285  87.4977 272.6480 14.34218507265362
IRIDIUM 176             
1 43923U 19002B   24035.90117068  .00001484  00000+0  23142-3 0  9990
2 43923  86.6133 354.4042 0002312  90.1963 269.9519 14.72269227272237
IRIDIUM 168             
1 43924U 19002C   24035.95350666  .00000039  00000+0  70232-5 0  9998
2 43924  86.4008 354.4060 0002240  88.7268 271.4185 14.34217715265241
IRIDIUM 173             
1 43925U 19002D   24035.94081624  .00000493  00000+0  16886-3 0  9990
2 43925  86.4003 354.3358 0002228  83.2723 276.8726 14.34216517265225
IRIDIUM 169             
1 43926U 19002E   24035.92604079  .00000393  00000+0  12205-3 0  9994
2 43926  86.4222  25.9390 0001729   5.3309 354.7907 14.38604390266116
IRIDIUM 172             
1 43927U 19002F   24036.42285333  .00000359  00000+0  12125-3 0  9992
2 43927  86.4004 354.1397 0002278  86.6958 273.4499 14.34221009265302
IRIDIUM 175             
1 43928U 19002G   24036.30304583  .00001659  00000+0  25901-3 0  9999
2 43928  86.1547 334.9026 0002331  84.6305 275.5178 14.72267565272282
IRIDIUM 171             
1 43929U 19002H   24036.40382926  .00000239  00000+0  78154-4 0  9990
2 43929  86.4014 354.3582 0002173  89.4688 270.6756 14.34217492265292
IRIDIUM 170             
1 43930U 19002J   24036.38315190  .00001620  00000+0  25288-3 0  9992
2 43930  86.6134 354.2075 0002465  87.1761 272.9738 14.72274391272315
IRIDIUM 167             
1 43931U 19002K   24035.90910348  .00000573  00000+0  19737-3 0  9994
2 43931  86.4003 354.3692 0002228  88.8562 271.2889 14.34216656265228
IRIDIUM 181             
1 56726U 23068S   24035.95004064  .00000279  00000+0  76565-4 0  9997
2 56726  86.8605  41.5966 0002130 106.7327 253.4108 14.43573300 37917
IRIDIUM 177             
1 56727U 23068T   24036.45564124  .00002219  00000+0  28845-3 0  9995
2 56727  86.1981  18.3586 0002541  91.7218 268.4294 14.80240492 38744
IRIDIUM 174             
1 56728U 23068U   24035.90942340  .00002081  00000+0  27018-3 0  9993
2 56728  86.1987  18.7108 0002540  89.9679 270.1833 14.80257497 38667
IRIDIUM 178             
1 56729U 23068V   24036.51262520  .00000938  00000+0  12003-3 0  9994
2 56729  86.5774  29.5946 0002666  93.6360 266.5166 14.80221401 38758
IRIDIUM 179             
1 56730U 23068W   24036.50724592  .00000908  00000+0  11606-3 0  9992
2 56730  86.6779  32.0586 0002364  95.0649 265.0842 14.80214246 38750
